0 FENGYUN 1C DEB
1 35138U 99025DLS 13281.18724070  .00034462  00000-0  51841-2 0  2048
2 35138 098.9014 054.6626 0069624 235.3307 357.7791 14.72704832291135
0 FENGYUN 1C DEB
1 35138U 99025DLS 13287.18919467  .00045375  00000-0  67766-2 0  2059
2 35138 098.8800 061.2648 0062094 219.4962 141.9040 14.73266469292028
0 FENGYUN 1C DEB
1 35138U 99025DLS 13288.20758750  .00045094  00000-0  67218-2 0  2060
2 35138 098.8793 062.3777 0061965 216.5576 143.1206 14.73355117292172
